{
    "links": {
        "self": "http://www.neowsapp.com/rest/v1/neo/3986747?api_key=iIulBulltgU6a56xZRHN4H3l9WmuAYTsLGpBGhQ2"
    },
    "id": "3986747",
    "neo_reference_id": "3986747",
    "name": "(2020 BA1)",
    "designation": "2020 BA1",
    "nasa_jpl_url": "http://ssd.jpl.nasa.gov/sbdb.cgi?sstr=3986747",
    "absolute_magnitude_h": 24.323,
    "estimated_diameter": {
        "kilometers": {
            "estimated_diameter_min": 0.0363040416,
            "estimated_diameter_max": 0.081178305
        },
        "meters": {
            "estimated_diameter_min": 36.3040416349,
            "estimated_diameter_max": 81.1783049535
        },
        "miles": {
            "estimated_diameter_min": 0.0225582787,
            "estimated_diameter_max": 0.0504418445
        },
        "feet": {
            "estimated_diameter_min": 119.1077519573,
            "estimated_diameter_max": 266.3330300238
        }
    },
    "is_potentially_hazardous_asteroid": false,
    "close_approach_data": [
        {
            "close_approach_date": "2019-08-15",
            "close_approach_date_full": "2019-Aug-15 07:39",
            "epoch_date_close_approach": 1565854740000,
            "relative_velocity": {
                "kilometers_per_second": "15.4107293045",
                "kilometers_per_hour": "55478.6254963019",
                "miles_per_hour": "34472.2603812994"
            },
            "miss_distance": {
                "astronomical": "0.3480680804",
                "lunar": "135.3984832756",
                "kilometers": "52070243.442828748",
                "miles": "32354948.9564548024"
            },
            "orbiting_body": "Earth"
        },
        {
            "close_approach_date": "2020-01-18",
            "close_approach_date_full": "2020-Jan-18 10:35",
            "epoch_date_close_approach": 1579343700000,
            "relative_velocity": {
                "kilometers_per_second": "15.8470476354",
                "kilometers_per_hour": "57049.3714874962",
                "miles_per_hour": "35448.2608556612"
            },
            "miss_distance": {
                "astronomical": "0.1323807579",
                "lunar": "51.4961148231",
                "kilometers": "19803879.410825673",
                "miles": "12305560.0494853674"
            },
            "orbiting_body": "Earth"
        }
    ],
    "orbital_data": {
        "orbit_id": "5",
        "orbit_determination_date": "2020-10-03 06:23:49",
        "first_observation_date": "2020-01-18",
        "last_observation_date": "2020-02-01",
        "data_arc_in_days": 14,
        "observations_used": 32,
        "orbit_uncertainty": "8",
        "minimum_orbit_intersection": ".132034",
        "jupiter_tisserand_invariant": "4.739",
        "epoch_osculation": "2458869.5",
        "eccentricity": ".2524613716307698",
        "semi_major_axis": "1.342116304865669",
        "inclination": "28.75043970304298",
        "ascending_node_longitude": "302.6079418733229",
        "orbital_period": "567.9154132057485",
        "perihelion_distance": "1.003283781651262",
        "perihelion_argument": "116.9242780308265",
        "aphelion_distance": "1.680948828080076",
        "perihelion_time": "2458810.567757606733",
        "mean_anomaly": "37.35698445270049",
        "mean_motion": ".6338972171364129",
        "equinox": "J2000",
        "orbit_class": {
            "orbit_class_type": "APO",
            "orbit_class_description": "Near-Earth asteroid orbits which cross the Earth’s orbit similar to that of 1862 Apollo",
            "orbit_class_range": "a (semi-major axis) > 1.0 AU; q (perihelion) < 1.017 AU"
        }
    },
    "is_sentry_object": false
}